NORAD_CAT_ID,OBJECT_NAME,OBJECT_TYPE,EPOCH,MEAN_MOTION,ECCENTRICITY,INCLINATION,RA_OF_ASC_NODE,ARG_OF_PERICENTER,MEAN_ANOMALY,BSTAR,MEAN_MOTION_DOT,MEAN_MOTION_DDOT,TLE_LINE0,TLE_LINE1,TLE_LINE2,SEMIMAJOR_AXIS,PERIOD,APOGEE,PERIGEE,DECAYED
53180.0,STARLINK-4258,PAYLOAD,2023-01-02 12:17:07,15.0884631,0.0001826,53.2157,301.1235,49.6449,310.4702,-0.00012799,-2.325e-05,0.0,0 STARLINK-4258,1 53180U 22083BA  23002.51189086 -.00002325  00000-0 -12799-3 0  9992,2 53180  53.2157 301.1235 0001826  49.6449 310.4702 15.08846310 26461,6917.861,95.437,540.989,538.4630000000002,0.0
53180.0,STARLINK-4258,PAYLOAD,2023-01-03 05:46:22,15.08823538,0.0001875,53.2155,297.8522,48.202,311.9132,0.00020218,2.93e-05,0.0,0 STARLINK-4258,1 53180U 22083BA  23003.24054014  .00002930  00000-0  20218-3 0  9990,2 53180  53.2155 297.8522 0001875  48.2020 311.9132 15.08823538 27217,6917.931,95.439,541.0930000000002,538.499,0.0
53180.0,STARLINK-4258,PAYLOAD,2023-01-03 12:07:55,15.08834486,0.000185,53.2156,296.6628,49.2714,310.8439,7.1167e-05,8.45e-06,0.0,0 STARLINK-4258,1 53180U 22083BA  23003.50549898  .00000845  00000-0  71167-4 0  9991,2 53180  53.2156 296.6628 0001850  49.2714 310.8439 15.08834486 26611,6917.897,95.438,541.0419999999998,538.482,0.0
53180.0,STARLINK-4258,PAYLOAD,2023-01-04 11:58:42,15.08840684,0.0001783,53.2159,292.2022,44.5683,315.5452,0.00012336,1.676e-05,0.0,0 STARLINK-4258,1 53180U 22083BA  23004.49910211  .00001676  00000-0  12336-3 0  9996,2 53180  53.2159 292.2022 0001783  44.5683 315.5452 15.08840684 27404,6917.878000000002,95.438,540.977,538.51,0.0
53180.0,STARLINK-4258,PAYLOAD,2023-01-05 03:52:31,15.08865151,0.0001871,53.2152,289.2276,45.0509,315.0635,0.00026817,3.985e-05,0.0,0 STARLINK-4258,1 53180U 22083BA  23005.16147786  .00003985  00000-0  26817-3 0  9994,2 53180  53.2152 289.2276 0001871  45.0509 315.0635 15.08865151 27500,6917.804,95.436,540.9630000000002,538.374,0.0
53180.0,STARLINK-4258,PAYLOAD,2023-01-05 11:49:27,15.08861055,0.0001810999999999,53.2151,287.7409,43.5578,316.5557,0.00026495,3.934e-05,0.0,0 STARLINK-4258,1 53180U 22083BA  23005.49267694  .00003934  00000-0  26495-3 0  9997,2 53180  53.2151 287.7409 0001811  43.5578 316.5557 15.08861055 26915,6917.816,95.436,540.934,538.428,0.0
53180.0,STARLINK-4258,PAYLOAD,2023-01-06 11:40:16,15.08819248,0.0002044,53.2138,283.2788,53.3779,306.7401,-0.00037117,-6.187e-05,0.0,0 STARLINK-4258,1 53180U 22083BA  23006.48630040 -.00006187  00000-0 -37117-3 0  9994,2 53180  53.2138 283.2788 0002044  53.3779 306.7401 15.08819248 27706,6917.944,95.439,541.2230000000002,538.395,0.0
53180.0,STARLINK-4258,PAYLOAD,2023-01-07 03:34:07,15.08834556,0.0001812,53.2143,280.3063,45.4961,314.6179,-0.00027386,-4.643e-05,0.0,0 STARLINK-4258,1 53180U 22083BA  23007.14869494 -.00004643  00000-0 -27386-3 0  9997,2 53180  53.2143 280.3063 0001812  45.4961 314.6179 15.08834556 27803,6917.897,95.438,541.016,538.509,0.0
53180.0,STARLINK-4258,PAYLOAD,2023-01-07 11:31:02,15.08843127,0.0001923,53.2137,278.8212,46.3644,313.7507,-4.2418e-05,-9.63e-06,0.0,0 STARLINK-4258,1 53180U 22083BA  23007.47989199 -.00000963  00000-0 -42418-4 0  9993,2 53180  53.2137 278.8212 0001923  46.3644 313.7507 15.08843127 27859,6917.871,95.437,541.066,538.406,0.0
53180.0,STARLINK-4258,PAYLOAD,2023-01-07 17:52:35,15.08833454,0.0002186,53.2139,277.6321,50.5384,309.5802,4.3875e-05,4.1e-06,0.0,0 STARLINK-4258,1 53180U 22083BA  23007.74485969  .00000410  00000-0  43875-4 0  9992,2 53180  53.2139 277.6321 0002186  50.5384 309.5802 15.08833454 27896,6917.9,95.438,541.278,538.253,0.0
53180.0,STARLINK-4258,PAYLOAD,2023-01-08 03:24:55,15.0882112,0.0001823,53.2159,275.8457,52.9219,307.194,-8.4872e-06,-4.23e-06,0.0,0 STARLINK-4258,1 53180U 22083BA  23008.14230944 -.00000423  00000-0 -84872-5 0  9997,2 53180  53.2159 275.8457 0001823  52.9219 307.1940 15.08821120 27959,6917.938,95.439,541.064,538.5419999999998,0.0
53180.0,STARLINK-4258,PAYLOAD,2023-01-08 11:21:51,15.08827003,0.0002029,53.216,274.3595,54.5989,305.5192,0.0001393,1.929e-05,0.0,0 STARLINK-4258,1 53180U 22083BA  23008.47351064  .00001929  00000-0  13930-3 0  9995,2 53180  53.2160 274.3595 0002029  54.5989 305.5192 15.08827003 27361,6917.92,95.438,541.189,538.381,0.0
53180.0,STARLINK-4258,PAYLOAD,2023-01-08 17:43:23,15.08835388,0.0001857,53.2171,273.17,50.5181,309.5975,0.00030619,4.588e-05,0.0,0 STARLINK-4258,1 53180U 22083BA  23008.73846888  .00004588  00000-0  30619-3 0  9994,2 53180  53.2171 273.1700 0001857  50.5181 309.5975 15.08835388 28040,6917.894,95.438,541.044,538.475,0.0
53180.0,STARLINK-4258,PAYLOAD,2023-01-09 03:15:42,15.08841176,0.000188,53.2166,271.3863,49.0467,311.0687,0.00027004,4.012e-05,0.0,0 STARLINK-4258,1 53180U 22083BA  23009.13590845  .00004012  00000-0  27004-3 0  9994,2 53180  53.2166 271.3863 0001880  49.0467 311.0687 15.08841176 27465,6917.877,95.437,541.0419999999998,538.441,0.0
53180.0,STARLINK-4258,PAYLOAD,2023-01-09 17:34:10,15.0884949,0.0001866,53.216,268.7104,45.3712,314.7432,0.00042529,6.489e-05,0.0,0 STARLINK-4258,1 53180U 22083BA  23009.73206550  .00006489  00000-0  42529-3 0  9996,2 53180  53.2160 268.7104 0001866  45.3712 314.7432 15.08849490 27558,6917.851,95.437,541.007,538.4259999999998,0.0
53180.0,STARLINK-4258,PAYLOAD,2023-01-10 03:06:29,15.08848548,0.0001838,53.2155,266.9259,45.5848,314.5294,0.00027106,4.029e-05,0.0,0 STARLINK-4258,1 53180U 22083BA  23010.12950451  .00004029  00000-0  27106-3 0  9999,2 53180  53.2155 266.9259 0001838  45.5848 314.5294 15.08848548 28259,6917.854,95.437,540.991,538.448,0.0
53180.0,STARLINK-4258,PAYLOAD,2023-01-10 09:28:01,15.08840222,0.0001893,53.2158,265.7362,46.5996,313.5154,5.3823e-05,5.69e-06,0.0,0 STARLINK-4258,1 53180U 22083BA  23010.39446681  .00000569  00000-0  53823-4 0  9994,2 53180  53.2158 265.7362 0001893  46.5996 313.5154 15.08840222 28299,6917.88,95.438,541.054,538.435,0.0
53180.0,STARLINK-4258,PAYLOAD,2023-01-10 17:24:56,15.08857484,0.0001981,53.214,264.2499,356.5741,3.5237,9.7096e-06,-1.34e-06,0.0,0 STARLINK-4258,1 53180U 22083BA  23010.72565487 -.00000134  00000-0  97096-5 0  9997,2 53180  53.2140 264.2499 0001981 356.5741   3.5237 15.08857484 28347,6917.826999999998,95.436,541.062,538.322,0.0
53180.0,STARLINK-4258,PAYLOAD,2023-01-11 09:18:49,15.08833954,0.000196,53.2152,261.2761,51.4323,308.6845,-9.2693e-05,-1.763e-05,0.0,0 STARLINK-4258,1 53180U 22083BA  23011.38807262 -.00001763  00000-0 -92693-4 0  9997,2 53180  53.2152 261.2761 0001960  51.4323 308.6845 15.08833954 28444,6917.899,95.438,541.12,538.408,0.0
53180.0,STARLINK-4258,PAYLOAD,2023-01-11 12:29:36,15.08835815,0.0001968,53.2162,260.6809,52.0805,308.0364,-5.3007e-05,-1.132e-05,0.0,0 STARLINK-4258,1 53180U 22083BA  23011.52055701 -.00001132  00000-0 -53007-4 0  9992,2 53180  53.2162 260.6809 0001968  52.0805 308.0364 15.08835815 27820,6917.893,95.438,541.12,538.3969999999998,0.0
53180.0,STARLINK-4258,PAYLOAD,2023-01-12 09:09:39,15.08799443,0.0001713,53.2193,256.8163,61.07100000000001,299.0453,2.6304e-05,1.3e-06,0.0,0 STARLINK-4258,1 53180U 22083BA  23012.38170836  .00000130  00000-0  26304-4 0  9999,2 53180  53.2193 256.8163 0001713  61.0710 299.0453 15.08799443 28596,6918.004,95.44,541.054,538.684,0.0
53180.0,STARLINK-4258,PAYLOAD,2023-01-12 21:52:42,15.0883619,0.0001892,53.2188,254.4373,59.4874,300.6304,0.00017184,2.448e-05,0.0,0 STARLINK-4258,1 53180U 22083BA  23012.91160809  .00002448  00000-0  17184-3 0  9996,2 53180  53.2188 254.4373 0001892  59.4874 300.6304 15.08836190 28031,6917.892,95.438,541.066,538.448,0.0
53180.0,STARLINK-4258,PAYLOAD,2023-01-12 23:28:06,15.08836095,0.0002117,53.2182,254.141,64.9533,295.1679,0.0002182,3.186e-05,0.0,0 STARLINK-4258,1 53180U 22083BA  23012.97784739  .00003186  00000-0  21820-3 0  9998,2 53180  53.2182 254.1410 0002117  64.9533 295.1679 15.08836095 28686,6917.892,95.438,541.222,538.293,0.0
53180.0,STARLINK-4258,PAYLOAD,2023-01-13 09:00:23,15.08870282,0.000147,53.2189,252.3546,46.0351,314.0762,-0.00012788,-2.324e-05,0.0,0 STARLINK-4258,1 53180U 22083BA  23013.37527689 -.00002324  00000-0 -12788-3 0  9990,2 53180  53.2189 252.3546 0001470  46.0351 314.0762 15.08870282 28740,6917.7880000000005,95.436,540.67,538.636,0.0
53180.0,STARLINK-4258,PAYLOAD,2023-01-13 18:32:45,15.08778867,7.69e-05,53.2182,250.5705,66.9044,293.2029,0.0013644,0.00021457,0.0,0 STARLINK-4258,1 53180U 22083BA  23013.77274521  .00021457  00000-0  13644-2 0  9995,2 53180  53.2182 250.5705 0000769  66.9044 293.2029 15.08778867 28807,6918.066999999999,95.441,540.464,539.4,0.0
53180.0,STARLINK-4258,PAYLOAD,2023-01-13 21:43:30,15.08843699,0.0001406,53.217,249.9761,62.4393,297.6741,0.00078301,0.00012197,0.0,0 STARLINK-4258,1 53180U 22083BA  23013.90521039  .00012197  00000-0  78301-3 0  9992,2 53180  53.2170 249.9761 0001406  62.4393 297.6741 15.08843699 28181,6917.869000000001,95.437,540.707,538.761,0.0
53180.0,STARLINK-4258,PAYLOAD,2023-01-14 00:54:15,15.08858567,0.0001673,53.2166,249.3798,66.9812,293.1357,0.0005774,8.918e-05,0.0,0 STARLINK-4258,1 53180U 22083BA  23014.03767984  .00008918  00000-0  57740-3 0  9998,2 53180  53.2166 249.3798 0001673  66.9812 293.1357 15.08858567 28848,6917.8240000000005,95.436,540.846,538.531,0.0
53180.0,STARLINK-4258,PAYLOAD,2023-01-14 08:51:11,15.0885354,0.0001495,53.2158,247.8961,67.4509,292.6641,0.00010175,1.332e-05,0.0,0 STARLINK-4258,1 53180U 22083BA  23014.36887972  .00001332  00000-0  10175-3 0  9998,2 53180  53.2158 247.8961 0001495  67.4509 292.6641 15.08853540 28896,6917.839,95.437,540.738,538.67,0.0
53180.0,STARLINK-4258,PAYLOAD,2023-01-15 00:45:02,15.08847372,0.0001665,53.2161,244.9208,72.9961,287.1214,-5.2358e-05,-1.121e-05,0.0,0 STARLINK-4258,1 53180U 22083BA  23015.03127978 -.00001121  00000-0 -52358-4 0  9994,2 53180  53.2161 244.9208 0001665  72.9961 287.1214 15.08847372 28996,6917.858,95.437,540.875,538.571,0.0
